{
  "type": "FeatureCollection",
  "features": [
    {
      "type": "Feature",
      "properties": {
        "norad_id": 66821,
        "name": "STARLINK-35966",
        "group": "last-30-days",
        "lat": 19.5155755251783,
        "lon": 0.9225688845869614,
        "alt_km": 368.919903858673,
        "timestamp": "2025-12-16T10:53:44.206434+00:00",
        "meta_object_name": "STARLINK-35966",
        "meta_object_id": "2025-280A",
        "meta_epoch": "2025-12-15T22:00:01.999584",
        "meta_mean_motion": 15.68861183,
        "meta_eccentricity": 0.00039572,
        "meta_inclination": 69.9986,
        "meta_ra_of_asc_node": 189.8453,
        "meta_arg_of_pericenter": 273.2162,
        "meta_mean_anomaly": 94.3454,
        "meta_ephemeris_type": 0,
        "meta_classification_type": "U",
        "meta_norad_cat_id": 66821,
        "meta_element_set_no": 999,
        "meta_rev_at_epoch": 340,
        "meta_bstar": -0.018292,
        "meta_mean_motion_dot": -0.01838186,
        "meta_mean_motion_ddot": 0,
        "tle_line1": "1 66821U 25280A   25349.91668981 -.01838186  00000+0 -18292-1 0  9990",
        "tle_line2": "2 66821  69.9986 189.8453 0003957 273.2162  94.3454 15.68861183  3400"
      },
      "geometry": {
        "type": "Point",
        "coordinates": [
          0.9225688845869614,
          19.5155755251783
        ]
      }
    },
    {
      "type": "Feature",
      "properties": {
        "norad_id": 66822,
        "name": "STARLINK-35958",
        "group": "last-30-days",
        "lat": 17.753325995125167,
        "lon": 1.6413527544090625,
        "alt_km": 369.1851130893092,
        "timestamp": "2025-12-16T10:53:44.206444+00:00",
        "meta_object_name": "STARLINK-35958",
        "meta_object_id": "2025-280B",
        "meta_epoch": "2025-12-15T22:00:01.999584",
        "meta_mean_motion": 15.68895165,
        "meta_eccentricity": 0.0003703,
        "meta_inclination": 69.9986,
        "meta_ra_of_asc_node": 189.8436,
        "meta_arg_of_pericenter": 272.6915,
        "meta_mean_anomaly": 96.7776,
        "meta_ephemeris_type": 0,
        "meta_classification_type": "U",
        "meta_norad_cat_id": 66822,
        "meta_element_set_no": 999,
        "meta_rev_at_epoch": 340,
        "meta_bstar": -0.019043085,
        "meta_mean_motion_dot": -0.01944536,
        "meta_mean_motion_ddot": 0,
        "tle_line1": "1 66822U 25280B   25349.91668981 -.01944536  00000+0 -19043-1 0  9993",
        "tle_line2": "2 66822  69.9986 189.8436 0003703 272.6915  96.7776 15.68895165  3400"
      },
      "geometry": {
        "type": "Point",
        "coordinates": [
          1.6413527544090625,
          17.753325995125167
        ]
      }
    },
    {
      "type": "Feature",
      "properties": {
        "norad_id": 66823,
        "name": "STARLINK-35957",
        "group": "last-30-days",
        "lat": 15.937898649247213,
        "lon": 2.3653345031332327,
        "alt_km": 369.28675525773997,
        "timestamp": "2025-12-16T10:53:44.206454+00:00",
        "meta_object_name": "STARLINK-35957",
        "meta_object_id": "2025-280C",
        "meta_epoch": "2025-12-15T22:00:01.999584",
        "meta_mean_motion": 15.688646,
        "meta_eccentricity": 0.00038203,
        "meta_inclination": 69.9983,
        "meta_ra_of_asc_node": 189.8413,
        "meta_arg_of_pericenter": 272.865,
        "meta_mean_anomaly": 98.5248,
        "meta_ephemeris_type": 0,
        "meta_classification_type": "U",
        "meta_norad_cat_id": 66823,
        "meta_element_set_no": 999,
        "meta_rev_at_epoch": 340,
        "meta_bstar": -0.018331797,
        "meta_mean_motion_dot": -0.0184175,
        "meta_mean_motion_ddot": 0,
        "tle_line1": "1 66823U 25280C   25349.91668981 -.01841750  00000+0 -18332-1 0  9998",
        "tle_line2": "2 66823  69.9983 189.8413 0003820 272.8650  98.5248 15.68864600  3405"
      },
      "geometry": {
        "type": "Point",
        "coordinates": [
          2.3653345031332327,
          15.937898649247213
        ]
      }
    },
    {
      "type": "Feature",
      "properties": {
        "norad_id": 66824,
        "name": "STARLINK-35896",
        "group": "last-30-days",
        "lat": 14.159417250272282,
        "lon": 3.061630865866671,
        "alt_km": 369.5528326360636,
        "timestamp": "2025-12-16T10:53:44.206466+00:00",
        "meta_object_name": "STARLINK-35896",
        "meta_object_id": "2025-280D",
        "meta_epoch": "2025-12-15T22:00:01.999584",
        "meta_mean_motion": 15.68871378,
        "meta_eccentricity": 0.00039554,
        "meta_inclination": 69.9985,
        "meta_ra_of_asc_node": 189.8394,
        "meta_arg_of_pericenter": 272.2985,
        "meta_mean_anomaly": 101.0097,
        "meta_ephemeris_type": 0,
        "meta_classification_type": "U",
        "meta_norad_cat_id": 66824,
        "meta_element_set_no": 999,
        "meta_rev_at_epoch": 340,
        "meta_bstar": -0.018582819,
        "meta_mean_motion_dot": -0.01901362,
        "meta_mean_motion_ddot": 0,
        "tle_line1": "1 66824U 25280D   25349.91668981 -.01901362  00000+0 -18583-1 0  9993",
        "tle_line2": "2 66824  69.9985 189.8394 0003955 272.2985 101.0097 15.68871378  3402"
      },
      "geometry": {
        "type": "Point",
        "coordinates": [
          3.061630865866671,
          14.159417250272282
        ]
      }
    },
    {
      "type": "Feature",
      "properties": {
        "norad_id": 66825,
        "name": "STARLINK-35476",
        "group": "last-30-days",
        "lat": 12.37646452091325,
        "lon": 3.7471681647708315,
        "alt_km": 370.0442336757087,
        "timestamp": "2025-12-16T10:53:44.206477+00:00",
        "meta_object_name": "STARLINK-35476",
        "meta_object_id": "2025-280E",
        "meta_epoch": "2025-12-15T22:00:01.999584",
        "meta_mean_motion": 15.68897898,
        "meta_eccentricity": 0.00038403,
        "meta_inclination": 69.9986,
        "meta_ra_of_asc_node": 189.8367,
        "meta_arg_of_pericenter": 277.4575,
        "meta_mean_anomaly": 97.7603,
        "meta_ephemeris_type": 0,
        "meta_classification_type": "U",
        "meta_norad_cat_id": 66825,
        "meta_element_set_no": 999,
        "meta_rev_at_epoch": 326,
        "meta_bstar": -0.019095244,
        "meta_mean_motion_dot": -0.01949585,
        "meta_mean_motion_ddot": 0,
        "tle_line1": "1 66825U 25280E   25349.91668981 -.01949585  00000+0 -19095-1 0  9992",
        "tle_line2": "2 66825  69.9986 189.8367 0003840 277.4575  97.7603 15.68897898  3262"
      },
      "geometry": {
        "type": "Point",
        "coordinates": [
          3.7471681647708315,
          12.37646452091325
        ]
      }
    },
    {
      "type": "Feature",
      "properties": {
        "norad_id": 66826,
        "name": "STARLINK-35898",
        "group": "last-30-days",
        "lat": 10.574479251651288,
        "lon": 4.430169587547862,
        "alt_km": 370.1407756435183,
        "timestamp": "2025-12-16T10:53:44.206487+00:00",
        "meta_object_name": "STARLINK-35898",
        "meta_object_id": "2025-280F",
        "meta_epoch": "2025-12-15T22:00:01.999584",
        "meta_mean_motion": 15.6888765,
        "meta_eccentricity": 0.00037543,
        "meta_inclination": 69.9983,
        "meta_ra_of_asc_node": 189.8344,
        "meta_arg_of_pericenter": 276.3326,
        "meta_mean_anomaly": 100.8045,
        "meta_ephemeris_type": 0,
        "meta_classification_type": "U",
        "meta_norad_cat_id": 66826,
        "meta_element_set_no": 999,
        "meta_rev_at_epoch": 340,
        "meta_bstar": -0.018907212,
        "meta_mean_motion_dot": -0.01931754,
        "meta_mean_motion_ddot": 0,
        "tle_line1": "1 66826U 25280F   25349.91668981 -.01931754  00000+0 -18907-1 0  9993",
        "tle_line2": "2 66826  69.9983 189.8344 0003754 276.3326 100.8045 15.68887650  3408"
      },
      "geometry": {
        "type": "Point",
        "coordinates": [
          4.430169587547862,
          10.574479251651288
        ]
      }
    },
    {
      "type": "Feature",
      "properties": {
        "norad_id": 66827,
        "name": "STARLINK-35959",
        "group": "last-30-days",
        "lat": 8.781001109493308,
        "lon": 5.1012703949503715,
        "alt_km": 370.40381892453934,
        "timestamp": "2025-12-16T10:53:44.206497+00:00",
        "meta_object_name": "STARLINK-35959",
        "meta_object_id": "2025-280G",
        "meta_epoch": "2025-12-15T22:00:01.999584",
        "meta_mean_motion": 15.68899936,
        "meta_eccentricity": 0.00036752,
        "meta_inclination": 69.9984,
        "meta_ra_of_asc_node": 189.8318,
        "meta_arg_of_pericenter": 277.4771,
        "meta_mean_anomaly": 101.5727,
        "meta_ephemeris_type": 0,
        "meta_classification_type": "U",
        "meta_norad_cat_id": 66827,
        "meta_element_set_no": 999,
        "meta_rev_at_epoch": 340,
        "meta_bstar": -0.01912777,
        "meta_mean_motion_dot": -0.01952506,
        "meta_mean_motion_ddot": 0,
        "tle_line1": "1 66827U 25280G   25349.91668981 -.01952506  00000+0 -19128-1 0  9998",
        "tle_line2": "2 66827  69.9984 189.8318 0003675 277.4771 101.5727 15.68899936  3404"
      },
      "geometry": {
        "type": "Point",
        "coordinates": [
          5.1012703949503715,
          8.781001109493308
        ]
      }
    }
  ]
}